STARLINK-5181           
1 54070U 22136V   24282.32401502  .00007453  00000+0  48546-3 0  9993
2 54070  53.2140 146.3582 0001152  87.9991 272.1133 15.08869825108745
STARLINK-5168           
1 54071U 22136W   24282.32033858  .00002928  00000+0  20190-3 0  9996
2 54071  53.2147 146.3362 0001572  85.3803 274.7368 15.08856128108749
STARLINK-5144           
1 54072U 22136X   24282.32770217  .00009500  00000+0  61363-3 0  9994
2 54072  53.2130 146.3833 0001052  93.2112 266.9000 15.08871517108744
STARLINK-5146           
1 54073U 22136Y   24282.31896021  .00004761  00000+0  31699-3 0  9999
2 54073  53.2154 141.3496 0001182  94.5259 265.5868 15.08845242108812
STARLINK-5192           
1 54074U 22136Z   24282.31664885  .00047474  00000+0  29747-2 0  9999
2 54074  53.2142 146.3111 0001466  85.9542 274.1617 15.08917365108749
STARLINK-5212           
1 54075U 22136AA  24282.31526367  .00006731  00000+0  44024-3 0  9999
2 54075  53.2147 141.3210 0001457  91.0459 269.0700 15.08869635108815
STARLINK-5201           
1 54076U 22136AB  24282.04167392  .00002052  00000+0  14690-3 0  9997
2 54076  53.2168 148.1311 0001344 104.9536 255.1605 15.08858697108693
STARLINK-5171           
1 54077U 22136AC  24281.98737390  .00010083  00000+0  58150-3 0  9993
2 54077  53.2156 126.4661 0001827 118.4048 241.7131 15.12944450108998
STARLINK-5138           
1 54078U 22136AD  24282.27806827  .00001989  00000+0  14302-3 0  9995
2 54078  53.2160 126.8249 0001286  87.6562 272.4578 15.08843946109492
STARLINK-5175           
1 54079U 22136AE  24282.30660608  .00003218  00000+0  22013-3 0  9990
2 54079  53.2136 136.9674 0001429  82.2427 277.8728 15.08853375108874
STARLINK-5160           
1 54080U 22136AF  24282.03566019  .00004376  00000+0  29275-3 0  9996
2 54080  53.2143 143.1205 0001080  94.7029 265.4086 15.08851664108760
STARLINK-5165           
1 54081U 22136AG  24282.01584781  .00001483  00000+0  11120-3 0  9997
2 54081  53.2161 137.9987 0001323 103.3653 256.7487 15.08857332108833
STARLINK-5210           
1 54082U 22136AH  24282.30292703  .00006181  00000+0  40598-3 0  9991
2 54082  53.2134 136.9422 0001158  89.9452 270.1673 15.08849530108871
STARLINK-5178           
1 54083U 22136AJ  24282.29186378  .00011154  00000+0  71714-3 0  9990
2 54083  53.2149 136.8748 0001289  87.5161 272.5979 15.08874344108870
STARLINK-5183           
1 54084U 22136AK  24281.90180035  .00002819  00000+0  19511-3 0  9997
2 54084  53.2147 138.7032 0001311  89.1266 270.9876 15.08850065109295
STARLINK-5166           
1 54085U 22136AL  24281.89170336  .00005933  00000+0  39037-3 0  9994
2 54085  53.2151 138.6399 0001338  94.9142 265.2003 15.08855811109284
STARLINK-5211           
1 54086U 22136AM  24282.29139481  .00017790  00000+0  11312-2 0  9995
2 54086  53.2147 121.9076 0001222 107.3799 252.7327 15.08899050109087
STARLINK-5184           
1 54087U 22136AN  24282.31757372  .00006667  00000+0  43629-3 0  9992
2 54087  53.2142 136.3309 0001464  73.5984 286.5169 15.08862146108882
STARLINK-5153           
1 54088U 22136AP  24282.29554793  .00018042  00000+0  11473-2 0  9993
2 54088  53.2146 136.8969 0001251  84.0947 276.0188 15.08886768108874
STARLINK-5143           
1 54089U 22136AQ  24282.33969063  .00000635  00000+0  57972-4 0  9994
2 54089  53.2164 136.4648 0001431  97.3265 262.7890 15.08842059108883
STARLINK-5177           
1 54090U 22136AR  24282.01216003  .00002059  00000+0  14732-3 0  9998
2 54090  53.2161 137.9726 0001192  95.1046 265.0082 15.08859327108832
STARLINK-5221           
1 54091U 22136AS  24282.31389466  .00002042  00000+0  14630-3 0  9995
2 54091  53.2146 136.3083 0001469  95.5386 264.5774 15.08848356108880
STARLINK-5190           
1 54092U 22136AT  24282.26471620  .00090715  00000+0  31210-2 0  9990
2 54092  53.1938 112.7657 0006477 158.2649 201.8628 15.29307867109688
STARLINK-5213           
1 54093U 22136AU  24282.32863030  .00002979  00000+0  20508-3 0  9992
2 54093  53.2156 136.3884 0001360  94.5810 265.5338 15.08852667108880
STARLINK-5219           
1 54094U 22136AV  24282.33600693  .00000517  00000+0  50544-4 0  9998
2 54094  53.2162 136.4398 0001397  88.9344 271.1809 15.08841447108888
STARLINK-5193           
1 54095U 22136AW  24282.32126419  .00003705  00000+0  25067-3 0  9990
2 54095  53.2142 136.3488 0001363  88.9332 271.1817 15.08852285108887
STARLINK-5188           
1 54096U 22136AX  24282.33231144  .00010132  00000+0  65319-3 0  9990
2 54096  53.2145 136.4168 0001248 102.4491 257.6641 15.08872275108882
STARLINK-5197           
1 54097U 22136AY  24281.81023921  .00004274  00000+0  28654-3 0  9996
2 54097  53.2155 113.9006 0001325  90.0724 270.0419 15.08833190109158
STARLINK-5217           
1 54098U 22136AZ  24281.85494572  .00001494  00000+0  11195-3 0  9998
2 54098  53.2172 139.1092 0001519 103.2830 256.8332 15.08842324108809
STARLINK-5198           
1 54099U 22136BA  24282.31020293  .00006128  00000+0  40250-3 0  9999
2 54099  53.2146 136.2806 0001248  82.6481 277.4653 15.08865697108884
STARLINK-5185           
1 54100U 22136BB  24282.32495274  .00002893  00000+0  19974-3 0  9992
2 54100  53.2146 136.3748 0001920  75.8124 284.3081 15.08846558108885
STARLINK-5204           
1 54101U 22136BC  24281.99424840  .00010368  00000+0  66828-3 0  9992
2 54101  53.2140 122.9038 0001214  79.6754 280.4375 15.08854803109044
STARLINK-5179           
1 54102U 22136BD  24281.89074447  .00006338  00000+0  41575-3 0  9990
2 54102  53.2146 138.6243 0001341  86.2831 273.8315 15.08856905108813
STARLINK-5200           
1 54103U 22136BE  24282.26055058  .00009164  00000+0  59268-3 0  9998
2 54103  53.2143 116.7318 0001124  84.8163 275.2957 15.08868329109623
STARLINK-5203           
1 54104U 22136BF  24281.50935026  .00002641  00000+0  18395-3 0  9996
2 54104  53.2163 104.8749 0001306  91.6514 268.4627 15.08835419109251
COSMOS 2561             
1 54109U 22137A   24282.53133954  .00091515  00000+0  14739-2 0  9991
2 54109  97.0048 356.3403 0011974  83.4994 276.7622 15.52557527111179
ONEWEB-0490             
1 54113U 22138A   24282.44079816  .00000098  00000+0  21201-3 0  9992
2 54113  87.9128  67.6173 0001765  96.4600 263.6734 13.19727552 95484
ONEWEB-0492             
1 54114U 22138B   24282.39023030 -.00000095  00000+0 -27050-3 0  9991
2 54114  87.9132  67.6367 0001911  92.6493 267.4859 13.19722692 95486
ONEWEB-0495             
1 54115U 22138C   24282.36815043  .00000069  00000+0  14095-3 0  9996
2 54115  87.9133  67.6523 0002284 109.5636 250.5743 13.19726607 95466
ONEWEB-0497             
1 54116U 22138D   24282.38077419  .00000071  00000+0  14447-3 0  9990
2 54116  87.9128  67.6332 0001753  94.2161 265.9172 13.19725113 95458
ONEWEB-0499             
1 54117U 22138E   24282.43920958  .00000130  00000+0  29266-3 0  9993
2 54117  87.9133  67.6279 0001509 110.8422 249.2872 13.19724828 95475
ONEWEB-0500             
1 54118U 22138F   24282.44238360  .00000187  00000+0  43481-3 0  9991
2 54118  87.9127  67.6196 0001753  93.1779 266.9555 13.19727689 95489
ONEWEB-0501             
1 54119U 22138G   24282.39656705 -.00000170  00000+0 -45821-3 0  9997
2 54119  87.9127  67.6258 0002028 107.3112 252.8243 13.19725190 95454
ONEWEB-0502             
1 54120U 22138H   24282.45816953  .00000072  00000+0  14868-3 0  9995
2 54120  87.9128  67.6009 0001739 105.1250 255.0075 13.19726128 95481
ONEWEB-0503             
1 54121U 22138J   24282.44711382  .00000147  00000+0  33437-3 0  9991
2 54121  87.9124  67.6091 0001324 101.9594 258.1687 13.19724680 95477
ONEWEB-0504             
1 54122U 22138K   24282.43448538  .00000118  00000+0  26321-3 0  9993
2 54122  87.9127  67.6203 0001682 108.0528 252.0788 13.19727402 95489
ONEWEB-0505             
1 54123U 22138L   24282.43132628  .00000158  00000+0  36250-3 0  9990
2 54123  87.9129  67.6146 0002151 113.2484 246.8875 13.19728326 95461
ONEWEB-0506             
1 54124U 22138M   24282.40604424  .00000175  00000+0  40511-3 0  9990
2 54124  87.9126  67.6165 0001848 101.2048 258.9292 13.19727825 95454
ONEWEB-0507             
1 54125U 22138N   24282.42658903  .00000203  00000+0  47418-3 0  9999
2 54125  87.9139  67.6435 0002006  99.9349 260.2010 13.19728435 95501
ONEWEB-0508             
1 54126U 22138P   24282.42343033  .00000174  00000+0  40125-3 0  9990
2 54126  87.9130  67.6339 0002172 101.3256 258.8121 13.19727242 95483
ONEWEB-0509             
1 54127U 22138Q   24282.47395789  .00000011  00000+0 -50482-5 0  9991
2 54127  87.9125  67.6033 0001764  99.1067 261.0265 13.19724406 95461
ONEWEB-0510             
1 54128U 22138R   24282.31971390  .00000078  00000+0  15881-3 0  9997
2 54128  87.9277  37.1342 0001800  85.8629 274.2710 13.20773397 97853
ONEWEB-0511             
1 54129U 22138S   24282.39498240  .00000069  00000+0  13940-3 0  9998
2 54129  87.9123  67.6229 0001459 106.2665 253.8629 13.19725879 95483
ONEWEB-0512             
1 54130U 22138T   24282.46291668  .00000041  00000+0  69016-4 0  9999
2 54130  87.9137  67.6343 0001930 109.1137 251.0205 13.19727368 95460
ONEWEB-0513             
1 54131U 22138U   24282.43367847  .00000096  00000+0  20839-3 0  9999
2 54131  87.9130  67.6312 0001873 114.0432 246.0897 13.19723466 95342
ONEWEB-0514             
1 54132U 22138V   24282.40289576  .00000154  00000+0  35272-3 0  9991
2 54132  87.9124  67.6290 0001618  95.3186 264.8131 13.19727015 95472
ONEWEB-0515             
1 54133U 22138W   24282.61010456  .00000197  00000+0  45182-3 0  9992
2 54133  87.9280  37.0548 0002081  70.9594 289.1765 13.20773533 97912
ONEWEB-0516             
1 54134U 22138X   24282.45343178  .00000143  00000+0  32376-3 0  9997
2 54134  87.9134  67.6375 0001727  93.7572 266.3758 13.19727128 95489
ONEWEB-0517             
1 54135U 22138Y   24282.43290025  .00000147  00000+0  33381-3 0  9999
2 54135  87.9128  67.6189 0001350 104.0774 256.0509 13.19726671 95480
